{
  "links" : {
    "next" : "https://api.nasa.gov/neo/rest/v1/feed?start_date=1995-12-16&end_date=1995-12-16&detailed=true&api_key=t0TVs3DtDT2H8Oy2Zy8m2eVrNsAVKAexjcZXUckd",
    "prev" : "https://api.nasa.gov/neo/rest/v1/feed?start_date=1995-12-14&end_date=1995-12-14&detailed=true&api_key=t0TVs3DtDT2H8Oy2Zy8m2eVrNsAVKAexjcZXUckd",
    "self" : "https://api.nasa.gov/neo/rest/v1/feed?start_date=1995-12-15&end_date=1995-12-15&detailed=true&api_key=t0TVs3DtDT2H8Oy2Zy8m2eVrNsAVKAexjcZXUckd"
  },
  "element_count" : 3,
  "near_earth_objects" : {
    "1995-12-15" : [ {
      "links" : {
        "self" : "https://api.nasa.gov/neo/rest/v1/neo/2033342?api_key=t0TVs3DtDT2H8Oy2Zy8m2eVrNsAVKAexjcZXUckd"
      },
      "neo_reference_id" : "2033342",
      "name" : "33342 (1998 WT24)",
      "nasa_jpl_url" : "http://ssd.jpl.nasa.gov/sbdb.cgi?sstr=2033342",
      "absolute_magnitude_h" : 17.9,
      "estimated_diameter" : {
        "kilometers" : {
          "estimated_diameter_min" : 0.6991252322,
          "estimated_diameter_max" : 1.5632915441
        },
        "meters" : {
          "estimated_diameter_min" : 699.1252322458,
          "estimated_diameter_max" : 1563.2915440869
        },
        "miles" : {
          "estimated_diameter_min" : 0.4344161447,
          "estimated_diameter_max" : 0.97138403
        },
        "feet" : {
          "estimated_diameter_min" : 2293.7180269613,
          "estimated_diameter_max" : 5128.9094295021
        }
      },
      "is_potentially_hazardous_asteroid" : true,
      "close_approach_data" : [ {
        "close_approach_date" : "1995-12-15",
        "epoch_date_close_approach" : 819014400000,
        "relative_velocity" : {
          "kilometers_per_second" : "24.0740291824",
          "kilometers_per_hour" : "86666.5050566249",
          "miles_per_hour" : "53851.1958781012"
        },
        "miss_distance" : {
          "astronomical" : "0.4406625545",
          "lunar" : "171.4177398682",
          "kilometers" : "65922180",
          "miles" : "40962144"
        },
        "orbiting_body" : "Earth"
      } ],
      "orbital_data" : {
        "orbit_id" : "167",
        "orbit_determination_date" : "2017-04-06 09:29:19",
        "orbit_uncertainty" : "0",
        "minimum_orbit_intersection" : ".010566",
        "jupiter_tisserand_invariant" : "7.912",
        "epoch_osculation" : "2454724.5",
        "eccentricity" : ".4179262386660452",
        "semi_major_axis" : ".7184976905003903",
        "inclination" : "7.341854914201308",
        "ascending_node_longitude" : "82.00123323283424",
        "orbital_period" : "222.4520906135928",
        "perihelion_distance" : ".4182186532193219",
        "perihelion_argument" : "167.2965171869824",
        "aphelion_distance" : "1.018776727781459",
        "perihelion_time" : "2454797.912344354854",
        "mean_anomaly" : "241.1948950677448",
        "mean_motion" : "1.618325991034775",
        "equinox" : "J2000"
      }
    }, {
      "links" : {
        "self" : "https://api.nasa.gov/neo/rest/v1/neo/2397847?api_key=t0TVs3DtDT2H8Oy2Zy8m2eVrNsAVKAexjcZXUckd"
      },
      "neo_reference_id" : "2397847",
      "name" : "397847 (2008 TA1)",
      "nasa_jpl_url" : "http://ssd.jpl.nasa.gov/sbdb.cgi?sstr=2397847",
      "absolute_magnitude_h" : 18.8,
      "estimated_diameter" : {
        "kilometers" : {
          "estimated_diameter_min" : 0.4619074603,
          "estimated_diameter_max" : 1.0328564805
        },
        "meters" : {
          "estimated_diameter_min" : 461.9074602816,
          "estimated_diameter_max" : 1032.8564805039
        },
        "miles" : {
          "estimated_diameter_min" : 0.2870159005,
          "estimated_diameter_max" : 0.6417870641
        },
        "feet" : {
          "estimated_diameter_min" : 1515.4444719902,
          "estimated_diameter_max" : 3388.6368554964
        }
      },
      "is_potentially_hazardous_asteroid" : false,
      "close_approach_data" : [ {
        "close_approach_date" : "1995-12-15",
        "epoch_date_close_approach" : 819014400000,
        "relative_velocity" : {
          "kilometers_per_second" : "16.1934694025",
          "kilometers_per_hour" : "58296.4898491566",
          "miles_per_hour" : "36223.1717065496"
        },
        "miss_distance" : {
          "astronomical" : "0.268920858",
          "lunar" : "104.6102142334",
          "kilometers" : "40229988",
          "miles" : "24997756"
        },
        "orbiting_body" : "Earth"
      } ],
      "orbital_data" : {
        "orbit_id" : "45",
        "orbit_determination_date" : "2017-04-06 09:21:54",
        "orbit_uncertainty" : "0",
        "minimum_orbit_intersection" : ".143818",
        "jupiter_tisserand_invariant" : "4.621",
        "epoch_osculation" : "2458000.5",
        "eccentricity" : ".4484890787234436",
        "semi_major_axis" : "1.39649036846182",
        "inclination" : "14.83114862551176",
        "ascending_node_longitude" : "22.05535256630601",
        "orbital_period" : "602.7751558017376",
        "perihelion_distance" : ".7701796896642161",
        "perihelion_argument" : "145.6407166642084",
        "aphelion_distance" : "2.022801047259424",
        "perihelion_time" : "2457955.349707175854",
        "mean_anomaly" : "26.96545347008091",
        "mean_motion" : ".5972376209188186",
        "equinox" : "J2000"
      }
    }, {
      "links" : {
        "self" : "https://api.nasa.gov/neo/rest/v1/neo/3455137?api_key=t0TVs3DtDT2H8Oy2Zy8m2eVrNsAVKAexjcZXUckd"
      },
      "neo_reference_id" : "3455137",
      "name" : "(2009 FU23)",
      "nasa_jpl_url" : "http://ssd.jpl.nasa.gov/sbdb.cgi?sstr=3455137",
      "absolute_magnitude_h" : 20.0,
      "estimated_diameter" : {
        "kilometers" : {
          "estimated_diameter_min" : 0.2658,
          "estimated_diameter_max" : 0.5943468684
        },
        "meters" : {
          "estimated_diameter_min" : 265.8,
          "estimated_diameter_max" : 594.3468684194
        },
        "miles" : {
          "estimated_diameter_min" : 0.1651604118,
          "estimated_diameter_max" : 0.369309908
        },
        "feet" : {
          "estimated_diameter_min" : 872.047272,
          "estimated_diameter_max" : 1949.9569797852
        }
      },
      "is_potentially_hazardous_asteroid" : true,
      "close_approach_data" : [ {
        "close_approach_date" : "1995-12-15",
        "epoch_date_close_approach" : 819014400000,
        "relative_velocity" : {
          "kilometers_per_second" : "11.3141276378",
          "kilometers_per_hour" : "40730.8594961369",
          "miles_per_hour" : "25308.5721130302"
        },
        "miss_distance" : {
          "astronomical" : "0.2967676688",
          "lunar" : "115.4426269531",
          "kilometers" : "44395812",
          "miles" : "27586280"
        },
        "orbiting_body" : "Earth"
      } ],
      "orbital_data" : {
        "orbit_id" : "28",
        "orbit_determination_date" : "2017-04-06 09:00:54",
        "orbit_uncertainty" : "2",
        "minimum_orbit_intersection" : ".0331774",
        "jupiter_tisserand_invariant" : "6.962",
        "epoch_osculation" : "2458000.5",
        "eccentricity" : ".2820310927535006",
        "semi_major_axis" : ".8372024786502689",
        "inclination" : "13.89965502865119",
        "ascending_node_longitude" : "57.80375669977673",
        "orbital_period" : "279.7977289150466",
        "perihelion_distance" : ".6010853487405943",
        "perihelion_argument" : "315.1638598580114",
        "aphelion_distance" : "1.073319608559943",
        "perihelion_time" : "2457864.450722515800",
        "mean_anomaly" : "175.0469529693104",
        "mean_motion" : "1.286643752956639",
        "equinox" : "J2000"
      }
    } ]
  }
}